[{"OBJECT_NAME":"OPS-SAT","OBJECT_ID":"2019-092F","EPOCH":"2023-04-26T18:25:33.112704","MEAN_MOTION":15.3193713,"ECCENTRICITY":0.0008302,"INCLINATION":97.4778,"RA_OF_ASC_NODE":304.9442,"ARG_OF_PERICENTER":319.5239,"MEAN_ANOMALY":40.5384,"EPHEMERIS_TYPE":0,"CLASSIFICATION_TYPE":"U","NORAD_CAT_ID":44878,"ELEMENT_SET_NO":999,"REV_AT_EPOCH":18591,"BSTAR":0.00077425,"MEAN_MOTION_DOT":0.00023867,"MEAN_MOTION_DDOT":0},{"OBJECT_NAME":"FLORIPASAT-1","OBJECT_ID":"2019-093G","EPOCH":"2023-04-27T10:17:45.117888","MEAN_MOTION":14.85406575,"ECCENTRICITY":0.0012492,"INCLINATION":97.8682,"RA_OF_ASC_NODE":199.1671,"ARG_OF_PERICENTER":243.1823,"MEAN_ANOMALY":116.8199,"EPHEMERIS_TYPE":0,"CLASSIFICATION_TYPE":"U","NORAD_CAT_ID":44885,"ELEMENT_SET_NO":999,"REV_AT_EPOCH":18141,"BSTAR":0.00071178,"MEAN_MOTION_DOT":6.088e-5,"MEAN_MOTION_DDOT":0},{"OBJECT_NAME":"BY70-2","OBJECT_ID":"2020-042B","EPOCH":"2023-04-27T03:44:49.407360","MEAN_MOTION":14.88524586,"ECCENTRICITY":0.001113,"INCLINATION":97.9252,"RA_OF_ASC_NODE":196.9563,"ARG_OF_PERICENTER":170.2989,"MEAN_ANOMALY":189.843,"EPHEMERIS_TYPE":0,"CLASSIFICATION_TYPE":"U","NORAD_CAT_ID":45857,"ELEMENT_SET_NO":999,"REV_AT_EPOCH":15194,"BSTAR":0.0018577,"MEAN_MOTION_DOT":0.0001727,"MEAN_MOTION_DDOT":0},{"OBJECT_NAME":"SALSAT","OBJECT_ID":"2020-068K","EPOCH":"2023-04-26T09:55:37.081632","MEAN_MOTION":15.07250833,"ECCENTRICITY":0.0014146,"INCLINATION":97.7654,"RA_OF_ASC_NODE":63.9013,"ARG_OF_PERICENTER":299.2467,"MEAN_ANOMALY":60.7345,"EPHEMERIS_TYPE":0,"CLASSIFICATION_TYPE":"U","NORAD_CAT_ID":46495,"ELEMENT_SET_NO":999,"REV_AT_EPOCH":14127,"BSTAR":0.00031331,"MEAN_MOTION_DOT":4.668e-5,"MEAN_MOTION_DDOT":0},{"OBJECT_NAME":"NETSAT-4","OBJECT_ID":"2020-068U","EPOCH":"2023-04-26T14:19:20.001792","MEAN_MOTION":15.06960891,"ECCENTRICITY":0.0011614,"INCLINATION":97.758,"RA_OF_ASC_NODE":61.9564,"ARG_OF_PERICENTER":355.1166,"MEAN_ANOMALY":5.0008,"EPHEMERIS_TYPE":0,"CLASSIFICATION_TYPE":"U","NORAD_CAT_ID":46504,"ELEMENT_SET_NO":999,"REV_AT_EPOCH":14113,"BSTAR":0.00065489,"MEAN_MOTION_DOT":9.752e-5,"MEAN_MOTION_DDOT":0},{"OBJECT_NAME":"NETSAT-3","OBJECT_ID":"2020-068V","EPOCH":"2023-04-26T14:59:36.701376","MEAN_MOTION":15.0682961,"ECCENTRICITY":0.0010682,"INCLINATION":97.7564,"RA_OF_ASC_NODE":61.8328,"ARG_OF_PERICENTER":6.078,"MEAN_ANOMALY":354.0552,"EPHEMERIS_TYPE":0,"CLASSIFICATION_TYPE":"U","NORAD_CAT_ID":46505,"ELEMENT_SET_NO":999,"REV_AT_EPOCH":14114,"BSTAR":0.00060777,"MEAN_MOTION_DOT":9.011e-5,"MEAN_MOTION_DDOT":0},{"OBJECT_NAME":"NETSAT-1","OBJECT_ID":"2020-068W","EPOCH":"2023-04-26T09:26:04.813728","MEAN_MOTION":15.06591004,"ECCENTRICITY":0.0010053,"INCLINATION":97.7555,"RA_OF_ASC_NODE":61.4917,"ARG_OF_PERICENTER":12.5293,"MEAN_ANOMALY":347.618,"EPHEMERIS_TYPE":0,"CLASSIFICATION_TYPE":"U","NORAD_CAT_ID":46506,"ELEMENT_SET_NO":999,"REV_AT_EPOCH":14110,"BSTAR":0.00058457,"MEAN_MOTION_DOT":8.607e-5,"MEAN_MOTION_DDOT":0},{"OBJECT_NAME":"NETSAT-2","OBJECT_ID":"2020-068X","EPOCH":"2023-04-26T22:11:04.209792","MEAN_MOTION":15.06894097,"ECCENTRICITY":0.0009303,"INCLINATION":97.7561,"RA_OF_ASC_NODE":62.0437,"ARG_OF_PERICENTER":17.4248,"MEAN_ANOMALY":342.7257,"EPHEMERIS_TYPE":0,"CLASSIFICATION_TYPE":"U","NORAD_CAT_ID":46507,"ELEMENT_SET_NO":999,"REV_AT_EPOCH":14113,"BSTAR":0.00066698,"MEAN_MOTION_DOT":9.911e-5,"MEAN_MOTION_DDOT":0},{"OBJECT_NAME":"UVSQ-SAT","OBJECT_ID":"2021-006AB","EPOCH":"2023-04-27T03:12:05.239872","MEAN_MOTION":15.22847389,"ECCENTRICITY":0.0008689,"INCLINATION":97.3887,"RA_OF_ASC_NODE":175.0196,"ARG_OF_PERICENTER":255.993,"MEAN_ANOMALY":104.0341,"EPHEMERIS_TYPE":0,"CLASSIFICATION_TYPE":"U","NORAD_CAT_ID":47438,"ELEMENT_SET_NO":999,"REV_AT_EPOCH":12487,"BSTAR":0.00058998,"MEAN_MOTION_DOT":0.00013768,"MEAN_MOTION_DDOT":0},{"OBJECT_NAME":"SOMP2B","OBJECT_ID":"2021-006AJ","EPOCH":"2023-04-27T03:56:04.327872","MEAN_MOTION":15.2217377,"ECCENTRICITY":0.0008459,"INCLINATION":97.386,"RA_OF_ASC_NODE":174.378,"ARG_OF_PERICENTER":262.1333,"MEAN_ANOMALY":97.8943,"EPHEMERIS_TYPE":0,"CLASSIFICATION_TYPE":"U","NORAD_CAT_ID":47445,"ELEMENT_SET_NO":999,"REV_AT_EPOCH":12485,"BSTAR":0.00062339,"MEAN_MOTION_DOT":0.00014266,"MEAN_MOTION_DDOT":0},{"OBJECT_NAME":"DIY-1 (ARDUIQUBE)","OBJECT_ID":"2021-022AH","EPOCH":"2023-04-26T22:53:48.982560","MEAN_MOTION":15.44536503,"ECCENTRICITY":0.0014132,"INCLINATION":97.5017,"RA_OF_ASC_NODE":23.3257,"ARG_OF_PERICENTER":114.6615,"MEAN_ANOMALY":245.6107,"EPHEMERIS_TYPE":0,"CLASSIFICATION_TYPE":"U","NORAD_CAT_ID":47963,"ELEMENT_SET_NO":999,"REV_AT_EPOCH":11464,"BSTAR":0.0026499,"MEAN_MOTION_DOT":0.00125138,"MEAN_MOTION_DDOT":0},{"OBJECT_NAME":"CAS-5A","OBJECT_ID":"2022-167C","EPOCH":"2023-04-27T02:40:03.965664","MEAN_MOTION":15.12828053,"ECCENTRICITY":0.0015072,"INCLINATION":97.5551,"RA_OF_ASC_NODE":255.107,"ARG_OF_PERICENTER":149.1992,"MEAN_ANOMALY":265.3466,"EPHEMERIS_TYPE":0,"CLASSIFICATION_TYPE":"U","NORAD_CAT_ID":54684,"ELEMENT_SET_NO":999,"REV_AT_EPOCH":2095,"BSTAR":0.00071487,"MEAN_MOTION_DOT":0.0001254,"MEAN_MOTION_DDOT":0}]
