OPS-SAT                 
1 44878U 19092F   23116.76774436  .00023867  00000+0  77425-3 0  9992
2 44878  97.4778 304.9442 0008302 319.5239  40.5384 15.31937130185917
FLORIPASAT-1            
1 44885U 19093G   23117.42899442  .00006088  00000+0  71178-3 0  9995
2 44885  97.8682 199.1671 0012492 243.1823 116.8199 14.85406575181411
BY70-2                  
1 45857U 20042B   23117.15612740  .00017270  00000+0  18577-2 0  9993
2 45857  97.9252 196.9563 0011130 170.2989 189.8430 14.88524586151940
SALSAT                  
1 46495U 20068K   23116.41362363  .00004668  00000+0  31331-3 0  9992
2 46495  97.7654  63.9013 0014146 299.2467  60.7345 15.07250833141279
NETSAT-4                
1 46504U 20068U   23116.59675928  .00009752  00000+0  65489-3 0  9996
2 46504  97.7580  61.9564 0011614 355.1166   5.0008 15.06960891141136
NETSAT-3                
1 46505U 20068V   23116.62473034  .00009011  00000+0  60777-3 0  9998
2 46505  97.7564  61.8328 0010682   6.0780 354.0552 15.06829610141149
NETSAT-1                
1 46506U 20068W   23116.39311127  .00008607  00000+0  58457-3 0  9999
2 46506  97.7555  61.4917 0010053  12.5293 347.6180 15.06591004141107
NETSAT-2                
1 46507U 20068X   23116.92435428  .00009911  00000+0  66698-3 0  9995
2 46507  97.7561  62.0437 0009303  17.4248 342.7257 15.06894097141131
UVSQ-SAT                
1 47438U 21006AB  23117.13339398  .00013768  00000+0  58998-3 0  9994
2 47438  97.3887 175.0196 0008689 255.9930 104.0341 15.22847389124877
SOMP2B                  
1 47445U 21006AJ  23117.16393898  .00014266  00000+0  62339-3 0  9998
2 47445  97.3860 174.3780 0008459 262.1333  97.8943 15.22173770124850
DIY-1 (ARDUIQUBE)       
1 47963U 21022AH  23116.95403915  .00125138  00000+0  26499-2 0  9996
2 47963  97.5017  23.3257 0014132 114.6615 245.6107 15.44536503114644
CAS-5A                  
1 54684U 22167C   23117.11115701  .00012540  00000+0  71487-3 0  9997
2 54684  97.5551 255.1070 0015072 149.1992 265.3466 15.12828053 20954
